FENGYUN 1C DEB          
1 37476U 99025EJW 17345.37179324  .00000339  00000-0  99538-3 0  9990
2 37476  98.9364 177.7334 1094920  97.7485 274.9050 11.84566039327681
